0 COSMOS 970 DEB
1 10889U 77121AL  13280.73347300  .00000371  00000-0  45225-3 0  7838
2 10889 065.8294 028.4837 0143249 246.3351 267.0069 13.73265816787993
0 COSMOS 970 DEB
1 10889U 77121AL  13287.26039382  .00000446  00000-0  52697-3 0  7857
2 10889 065.8295 012.3968 0143210 243.4133 134.3201 13.73273529788899
0 COSMOS 970 DEB
1 10889U 77121AL  13289.53699985  .00000440  00000-0  52092-3 0  7864
2 10889 065.8291 006.7854 0143223 242.4082 229.2653 13.73276790789206
0 COSMOS 970 DEB
1 10889U 77121AL  13290.53370721  .00000583  00000-0  58292-3 0  7888
2 10889 065.8291 004.3346 0143269 241.7206 116.9790 13.73276946789348
0 COSMOS 970 DEB
1 10889U 77121AL  13292.52246375  .00000452  00000-0  53245-3 0  7873
2 10889 065.8288 359.4271 0143138 241.0746 228.6698 13.73280151789613
0 COSMOS 970 DEB
1 10889U 77121AL  13294.70217747  .00000459  00000-0  54036-3 0  7883
2 10889 065.8287 354.0545 0143050 240.0899 204.6753 13.73282592789918
